LEMUR-2-HUBBLE-4        
1 64565U 25135AP  26186.02563416  .00001827  00000+0  17822-3 0  9992
2 64565  97.7713 299.7220 0001743 192.8987 167.2189 14.93666001 56531
LEMUR-2-SEJONG-2        
1 64586U 25135BL  26186.28812383  .00006132  00000+0  53965-3 0  9995
2 64586  97.7715 301.1878 0002944 263.4009  96.6877 14.96863025 56657
LEMUR-2-HUBBLE-5        
1 64840U 25135BT  26185.30141940  .00001449  00000+0  14066-3 0  9999
2 64840  97.7732 299.6635 0004096 284.2668  75.8097 14.94188176 56460
LEMUR-2-KARENDARRELL    
1 64841U 25135BU  26185.25957144  .00010926  00000+0  87289-3 0  9992
2 64841  97.7700 301.4418 0011308 140.0466 220.1592 15.00374837 56572
LEMUR-2-LUCILLE-ROSE    
1 65403U 25135BV  26185.96659510  .00013342  00000+0  10633-2 0  9994
2 65403  97.7728 302.1821 0013558 220.7939 139.2270 15.00398001 51301
LEMUR-2-AFFIE-WAUWIE    
1 66295U 25248C   26185.84427147  .00041727  00000+0  15036-2 0  9995
2 66295  45.3925  19.2757 0008299 197.3021 162.7586 15.27933670 37299
LEMUR-2-DEANANDMAEVE    
1 66678U 25276N   26186.15689710  .00011857  00000+0  55357-3 0  9994
2 66678  97.4199 259.3362 0004313 301.8123  58.2692 15.19969748 33145
LEMUR-2-STAS-GORBUK     
1 66686U 25276W   26186.17573863  .00009785  00000+0  46266-3 0  9992
2 66686  97.4234 259.4079 0003518 300.0952  59.9934 15.19585314 33147
LEMUR-2-TEODOR          
1 66768U 25276DG  26186.13977473  .00010254  00000+0  46171-3 0  9992
2 66768  97.4141 259.6316 0002349  98.2371 261.9131 15.21260583 33171
LEMUR-2-LAILA           
1 66776U 25276DQ  26186.17683098  .00009779  00000+0  43762-3 0  9995
2 66776  97.4164 259.8002 0002870 109.5812 250.5734 15.21485303 33187
LEMUR-2-CELIJO-SB-PK    
1 66781U 25276DW  26186.18029440  .00011915  00000+0  95586-3 0  9993
2 66781  97.5202 256.3655 0007554  88.8480 271.3609 15.00210002 25325
LEMUR-2-FINNIAN         
1 66782U 25276DX  26185.88605563  .00004231  00000+0  34005-3 0  9998
2 66782  97.5333 256.3227 0008270  36.6551 323.5237 15.00515956 22658
LEMUR-2-STARLIGHT       
1 66783U 25276DY  26185.92467693  .00011630  00000+0  95496-3 0  9996
2 66783  97.5223 255.9568 0014637  76.9781 283.3076 14.99261525 32850
LEMUR-2-TARTIFLETTE     
1 66784U 25276DZ  26185.92299715  .00009956  00000+0  81866-3 0  9999
2 66784  97.5226 255.9634 0013667  84.7358 275.5425 14.99259046 32853
LEMUR-2-VUKASIN         
1 66785U 25276EA  26186.16841347  .00002695  00000+0  21869-3 0  9991
2 66785  97.5256 256.5396 0004613  82.2970 277.8778 15.00457120 32844
LEMUR-2-HOTSPUR-TOM     
1 66786U 25276EB  26185.98349817  .00011341  00000+0  93388-3 0  9999
2 66786  97.5218 255.9992 0014031  75.8972 284.3810 14.99165308 32798
