{"fetched_at":"2026-07-05T17:36:12.600Z","source":"https://celestrak.org/NORAD/elements/gp.php?GROUP=spire&FORMAT=JSON","constellation":"spire","records":[{"OBJECT_NAME":"LEMUR-2-HUBBLE-4","OBJECT_ID":"2025-135AP","EPOCH":"2026-07-05T00:36:54.791424","CLASSIFICATION_TYPE":"U","MEAN_MOTION":14.93666001,"ECCENTRICITY":0.00017433,"INCLINATION":97.7713,"RA_OF_ASC_NODE":299.722,"ARG_OF_PERICENTER":192.8987,"MEAN_ANOMALY":167.2189,"EPHEMERIS_TYPE":0,"NORAD_CAT_ID":64565,"ELEMENT_SET_NO":999,"REV_AT_EPOCH":5653,"BSTAR":0.00017822172,"MEAN_MOTION_DOT":0.00001827,"MEAN_MOTION_DDOT":0},{"OBJECT_NAME":"LEMUR-2-SEJONG-2","OBJECT_ID":"2025-135BL","EPOCH":"2026-07-05T06:54:53.898912","CLASSIFICATION_TYPE":"U","MEAN_MOTION":14.96863025,"ECCENTRICITY":0.00029447,"INCLINATION":97.7715,"RA_OF_ASC_NODE":301.1878,"ARG_OF_PERICENTER":263.4009,"MEAN_ANOMALY":96.6877,"EPHEMERIS_TYPE":0,"NORAD_CAT_ID":64586,"ELEMENT_SET_NO":999,"REV_AT_EPOCH":5665,"BSTAR":0.00053964723,"MEAN_MOTION_DOT":0.00006132,"MEAN_MOTION_DDOT":0},{"OBJECT_NAME":"LEMUR-2-HUBBLE-5","OBJECT_ID":"2025-135BT","EPOCH":"2026-07-04T07:14:02.636160","CLASSIFICATION_TYPE":"U","MEAN_MOTION":14.94188176,"ECCENTRICITY":0.00040968,"INCLINATION":97.7732,"RA_OF_ASC_NODE":299.6635,"ARG_OF_PERICENTER":284.2668,"MEAN_ANOMALY":75.8097,"EPHEMERIS_TYPE":0,"NORAD_CAT_ID":64840,"ELEMENT_SET_NO":999,"REV_AT_EPOCH":5646,"BSTAR":0.00014065879,"MEAN_MOTION_DOT":0.00001449,"MEAN_MOTION_DDOT":0},{"OBJECT_NAME":"LEMUR-2-KARENDARRELL","OBJECT_ID":"2025-135BU","EPOCH":"2026-07-04T06:13:46.972416","CLASSIFICATION_TYPE":"U","MEAN_MOTION":15.00374837,"ECCENTRICITY":0.00113085,"INCLINATION":97.77,"RA_OF_ASC_NODE":301.4418,"ARG_OF_PERICENTER":140.0466,"MEAN_ANOMALY":220.1592,"EPHEMERIS_TYPE":0,"NORAD_CAT_ID":64841,"ELEMENT_SET_NO":999,"REV_AT_EPOCH":5657,"BSTAR":0.00087289329,"MEAN_MOTION_DOT":0.00010926,"MEAN_MOTION_DDOT":0},{"OBJECT_NAME":"LEMUR-2-LUCILLE-ROSE","OBJECT_ID":"2025-135BV","EPOCH":"2026-07-04T23:11:53.816640","CLASSIFICATION_TYPE":"U","MEAN_MOTION":15.00398001,"ECCENTRICITY":0.00135581,"INCLINATION":97.7728,"RA_OF_ASC_NODE":302.1821,"ARG_OF_PERICENTER":220.7939,"MEAN_ANOMALY":139.227,"EPHEMERIS_TYPE":0,"NORAD_CAT_ID":65403,"ELEMENT_SET_NO":999,"REV_AT_EPOCH":5130,"BSTAR":0.0010632546,"MEAN_MOTION_DOT":0.00013342,"MEAN_MOTION_DDOT":0},{"OBJECT_NAME":"LEMUR-2-AFFIE-WAUWIE","OBJECT_ID":"2025-248C","EPOCH":"2026-07-04T20:15:45.055008","CLASSIFICATION_TYPE":"U","MEAN_MOTION":15.2793367,"ECCENTRICITY":0.00082996,"INCLINATION":45.3925,"RA_OF_ASC_NODE":19.2757,"ARG_OF_PERICENTER":197.3021,"MEAN_ANOMALY":162.7586,"EPHEMERIS_TYPE":0,"NORAD_CAT_ID":66295,"ELEMENT_SET_NO":999,"REV_AT_EPOCH":3729,"BSTAR":0.0015036177,"MEAN_MOTION_DOT":0.00041727,"MEAN_MOTION_DDOT":0},{"OBJECT_NAME":"LEMUR-2-DEANANDMAEVE","OBJECT_ID":"2025-276N","EPOCH":"2026-07-05T03:45:55.909440","CLASSIFICATION_TYPE":"U","MEAN_MOTION":15.19969748,"ECCENTRICITY":0.00043137,"INCLINATION":97.4199,"RA_OF_ASC_NODE":259.3362,"ARG_OF_PERICENTER":301.8123,"MEAN_ANOMALY":58.2692,"EPHEMERIS_TYPE":0,"NORAD_CAT_ID":66678,"ELEMENT_SET_NO":999,"REV_AT_EPOCH":3314,"BSTAR":0.00055356844,"MEAN_MOTION_DOT":0.00011857,"MEAN_MOTION_DDOT":0},{"OBJECT_NAME":"LEMUR-2-STAS-GORBUK","OBJECT_ID":"2025-276W","EPOCH":"2026-07-05T04:13:03.817632","CLASSIFICATION_TYPE":"U","MEAN_MOTION":15.19585314,"ECCENTRICITY":0.00035187,"INCLINATION":97.4234,"RA_OF_ASC_NODE":259.4079,"ARG_OF_PERICENTER":300.0952,"MEAN_ANOMALY":59.9934,"EPHEMERIS_TYPE":0,"NORAD_CAT_ID":66686,"ELEMENT_SET_NO":999,"REV_AT_EPOCH":3314,"BSTAR":0.00046265882,"MEAN_MOTION_DOT":0.00009785,"MEAN_MOTION_DDOT":0},{"OBJECT_NAME":"LEMUR-2-TEODOR","OBJECT_ID":"2025-276DG","EPOCH":"2026-07-05T03:21:16.536672","CLASSIFICATION_TYPE":"U","MEAN_MOTION":15.21260583,"ECCENTRICITY":0.00023498,"INCLINATION":97.4141,"RA_OF_ASC_NODE":259.6316,"ARG_OF_PERICENTER":98.2371,"MEAN_ANOMALY":261.9131,"EPHEMERIS_TYPE":0,"NORAD_CAT_ID":66768,"ELEMENT_SET_NO":999,"REV_AT_EPOCH":3317,"BSTAR":0.000461705,"MEAN_MOTION_DOT":0.00010254,"MEAN_MOTION_DDOT":0},{"OBJECT_NAME":"LEMUR-2-LAILA","OBJECT_ID":"2025-276DQ","EPOCH":"2026-07-05T04:14:38.196672","CLASSIFICATION_TYPE":"U","MEAN_MOTION":15.21485303,"ECCENTRICITY":0.00028702,"INCLINATION":97.4164,"RA_OF_ASC_NODE":259.8002,"ARG_OF_PERICENTER":109.5812,"MEAN_ANOMALY":250.5734,"EPHEMERIS_TYPE":0,"NORAD_CAT_ID":66776,"ELEMENT_SET_NO":999,"REV_AT_EPOCH":3318,"BSTAR":0.00043761844,"MEAN_MOTION_DOT":0.00009779,"MEAN_MOTION_DDOT":0},{"OBJECT_NAME":"LEMUR-2-CELIJO-SB-PK","OBJECT_ID":"2025-276DW","EPOCH":"2026-07-05T04:19:37.436160","CLASSIFICATION_TYPE":"U","MEAN_MOTION":15.00210002,"ECCENTRICITY":0.00075541,"INCLINATION":97.5202,"RA_OF_ASC_NODE":256.3655,"ARG_OF_PERICENTER":88.848,"MEAN_ANOMALY":271.3609,"EPHEMERIS_TYPE":0,"NORAD_CAT_ID":66781,"ELEMENT_SET_NO":999,"REV_AT_EPOCH":2532,"BSTAR":0.00095586472,"MEAN_MOTION_DOT":0.00011915,"MEAN_MOTION_DDOT":0},{"OBJECT_NAME":"LEMUR-2-FINNIAN","OBJECT_ID":"2025-276DX","EPOCH":"2026-07-04T21:15:55.206432","CLASSIFICATION_TYPE":"U","MEAN_MOTION":15.00515956,"ECCENTRICITY":0.00082709,"INCLINATION":97.5333,"RA_OF_ASC_NODE":256.3227,"ARG_OF_PERICENTER":36.6551,"MEAN_ANOMALY":323.5237,"EPHEMERIS_TYPE":0,"NORAD_CAT_ID":66782,"ELEMENT_SET_NO":999,"REV_AT_EPOCH":2265,"BSTAR":0.00034004544,"MEAN_MOTION_DOT":0.00004231,"MEAN_MOTION_DDOT":0},{"OBJECT_NAME":"LEMUR-2-STARLIGHT","OBJECT_ID":"2025-276DY","EPOCH":"2026-07-04T22:11:32.086752","CLASSIFICATION_TYPE":"U","MEAN_MOTION":14.99261525,"ECCENTRICITY":0.00146371,"INCLINATION":97.5223,"RA_OF_ASC_NODE":255.9568,"ARG_OF_PERICENTER":76.9781,"MEAN_ANOMALY":283.3076,"EPHEMERIS_TYPE":0,"NORAD_CAT_ID":66783,"ELEMENT_SET_NO":999,"REV_AT_EPOCH":3285,"BSTAR":0.00095495904,"MEAN_MOTION_DOT":0.0001163,"MEAN_MOTION_DDOT":0},{"OBJECT_NAME":"LEMUR-2-TARTIFLETTE","OBJECT_ID":"2025-276DZ","EPOCH":"2026-07-04T22:09:06.953760","CLASSIFICATION_TYPE":"U","MEAN_MOTION":14.99259046,"ECCENTRICITY":0.00136678,"INCLINATION":97.5226,"RA_OF_ASC_NODE":255.9634,"ARG_OF_PERICENTER":84.7358,"MEAN_ANOMALY":275.5425,"EPHEMERIS_TYPE":0,"NORAD_CAT_ID":66784,"ELEMENT_SET_NO":999,"REV_AT_EPOCH":3285,"BSTAR":0.00081866479,"MEAN_MOTION_DOT":0.00009956,"MEAN_MOTION_DDOT":0},{"OBJECT_NAME":"LEMUR-2-VUKASIN","OBJECT_ID":"2025-276EA","EPOCH":"2026-07-05T04:02:30.923808","CLASSIFICATION_TYPE":"U","MEAN_MOTION":15.0045712,"ECCENTRICITY":0.00046134,"INCLINATION":97.5256,"RA_OF_ASC_NODE":256.5396,"ARG_OF_PERICENTER":82.297,"MEAN_ANOMALY":277.8778,"EPHEMERIS_TYPE":0,"NORAD_CAT_ID":66785,"ELEMENT_SET_NO":999,"REV_AT_EPOCH":3284,"BSTAR":0.00021869302,"MEAN_MOTION_DOT":0.00002695,"MEAN_MOTION_DDOT":0},{"OBJECT_NAME":"LEMUR-2-HOTSPUR-TOM","OBJECT_ID":"2025-276EB","EPOCH":"2026-07-04T23:36:14.241888","CLASSIFICATION_TYPE":"U","MEAN_MOTION":14.99165308,"ECCENTRICITY":0.00140311,"INCLINATION":97.5218,"RA_OF_ASC_NODE":255.9992,"ARG_OF_PERICENTER":75.8972,"MEAN_ANOMALY":284.381,"EPHEMERIS_TYPE":0,"NORAD_CAT_ID":66786,"ELEMENT_SET_NO":999,"REV_AT_EPOCH":3279,"BSTAR":0.00093388449,"MEAN_MOTION_DOT":0.00011341,"MEAN_MOTION_DDOT":0}]}
